STARLINK-5358           
1 57143U 23090AU  25311.97362489  .00000785  00000+0  73154-4 0  9997
2 57143  43.0037 203.0399 0001357 260.1134  99.9555 15.02530671132062
STARLINK-5150           
1 57144U 23090AV  25311.98472191 -.00000484  00000+0 -20724-4 0  9994
2 57144  43.0065 203.1236 0001234 266.5943  93.4759 15.02532268132066
STARLINK-5768           
1 57145U 23090AW  25311.96474386 -.00001121  00000+0 -67953-4 0  9995
2 57145  43.0068 202.9693 0001969 263.0902  96.9716 15.02529020132069
STARLINK-5791           
1 57146U 23090AX  25311.97140248 -.00001044  00000+0 -62229-4 0  9999
2 57146  43.0050 203.0218 0001192 270.2092  89.8614 15.02536284132062
STARLINK-5765           
1 57147U 23090AY  25311.76087156 -.00001568  00000+0 -10107-3 0  9993
2 57147  43.0039 204.0204 0001312 268.7687  91.3005 15.02528513132228
STARLINK-5788           
1 57148U 23090AZ  25310.75703238  .00001902  00000+0  15578-3 0  9995
2 57148  43.0007 209.3846 0000972 268.3155  91.7576 15.02539111131885
STARLINK-5778           
1 57149U 23090BA  25312.30651536  .00000548  00000+0  55676-4 0  9991
2 57149  43.0067 175.1947 0001595 264.8645  95.2015 15.02538593132602
STARLINK-5780           
1 57150U 23090BB  25311.96808819 -.00001006  00000+0 -59398-4 0  9999
2 57150  43.0042 202.9963 0001260 264.5384  95.5314 15.02524343132254
STARLINK-5776           
1 57151U 23090BC  25311.96696447 -.00001050  00000+0 -62714-4 0  9997
2 57151  43.0037 202.9873 0000810 257.7240 102.3512 15.02530410132253
STARLINK-6164           
1 57152U 23090BD  25311.97029258 -.00000587  00000+0 -28371-4 0  9994
2 57152  43.0034 203.0136 0001021 273.1873  86.8852 15.02528753132254
STARLINK-5879           
1 57153U 23090BE  25312.39272738 -.00000186  00000+0  12921-5 0  9994
2 57153  43.0037 188.0080 0001037 275.9225  84.1499 15.02528332131964
STARLINK-6106           
1 57154U 23090BF  25311.76198229 -.00001007  00000+0 -59504-4 0  9998
2 57154  43.0025 204.0266 0001189 270.0454  90.0252 15.02530594132221
STARLINK-6108           
1 57155U 23090BG  25312.41232714  .00000353  00000+0  41205-4 0  9990
2 57155  43.0051 200.3102 0001104 261.0796  98.9921 15.02540938132329
STARLINK-6137           
1 57156U 23090BH  25311.75087946  .00000500  00000+0  52079-4 0  9997
2 57156  43.0038 203.9455 0001384 266.8753  93.1931 15.02537115132221
STARLINK-5525           
1 57218U 23094A   25311.49228001 -.00000250  00000+0 -33907-5 0  9994
2 57218  43.0092 334.7207 0002725 272.8805  87.1726 15.02532671128731
STARLINK-5520           
1 57219U 23094B   25312.35316477 -.00000195  00000+0  62194-6 0  9994
2 57219  43.0054 329.9965 0001420 255.2971 104.7714 15.02531476128866
