[{"OBJECT_NAME":"STARLINK-5358","OBJECT_ID":"2023-090AU","EPOCH":"2025-11-07T23:22:01.190496","MEAN_MOTION":15.02530671,"ECCENTRICITY":0.00013576,"INCLINATION":43.0037,"RA_OF_ASC_NODE":203.0399,"ARG_OF_PERICENTER":260.1134,"MEAN_ANOMALY":99.9555,"EPHEMERIS_TYPE":0,"CLASSIFICATION_TYPE":"U","NORAD_CAT_ID":57143,"ELEMENT_SET_NO":999,"REV_AT_EPOCH":13206,"BSTAR":7.315448e-5,"MEAN_MOTION_DOT":7.85e-6,"MEAN_MOTION_DDOT":0},{"OBJECT_NAME":"STARLINK-5150","OBJECT_ID":"2023-090AV","EPOCH":"2025-11-07T23:37:59.973024","MEAN_MOTION":15.02532268,"ECCENTRICITY":0.00012344,"INCLINATION":43.0065,"RA_OF_ASC_NODE":203.1236,"ARG_OF_PERICENTER":266.5943,"MEAN_ANOMALY":93.4759,"EPHEMERIS_TYPE":0,"CLASSIFICATION_TYPE":"U","NORAD_CAT_ID":57144,"ELEMENT_SET_NO":999,"REV_AT_EPOCH":13206,"BSTAR":-2.0723965e-5,"MEAN_MOTION_DOT":-4.84e-6,"MEAN_MOTION_DDOT":0},{"OBJECT_NAME":"STARLINK-5768","OBJECT_ID":"2023-090AW","EPOCH":"2025-11-07T23:09:13.869504","MEAN_MOTION":15.0252902,"ECCENTRICITY":0.00019695,"INCLINATION":43.0068,"RA_OF_ASC_NODE":202.9693,"ARG_OF_PERICENTER":263.0902,"MEAN_ANOMALY":96.9716,"EPHEMERIS_TYPE":0,"CLASSIFICATION_TYPE":"U","NORAD_CAT_ID":57145,"ELEMENT_SET_NO":999,"REV_AT_EPOCH":13206,"BSTAR":-6.7952641e-5,"MEAN_MOTION_DOT":-1.121e-5,"MEAN_MOTION_DDOT":0},{"OBJECT_NAME":"STARLINK-5791","OBJECT_ID":"2023-090AX","EPOCH":"2025-11-07T23:18:49.174272","MEAN_MOTION":15.02536284,"ECCENTRICITY":0.00011927,"INCLINATION":43.005,"RA_OF_ASC_NODE":203.0218,"ARG_OF_PERICENTER":270.2092,"MEAN_ANOMALY":89.8614,"EPHEMERIS_TYPE":0,"CLASSIFICATION_TYPE":"U","NORAD_CAT_ID":57146,"ELEMENT_SET_NO":999,"REV_AT_EPOCH":13206,"BSTAR":-6.222914e-5,"MEAN_MOTION_DOT":-1.044e-5,"MEAN_MOTION_DDOT":0},{"OBJECT_NAME":"STARLINK-5765","OBJECT_ID":"2023-090AY","EPOCH":"2025-11-07T18:15:39.302784","MEAN_MOTION":15.02528513,"ECCENTRICITY":0.00013127,"INCLINATION":43.0039,"RA_OF_ASC_NODE":204.0204,"ARG_OF_PERICENTER":268.7687,"MEAN_ANOMALY":91.3005,"EPHEMERIS_TYPE":0,"CLASSIFICATION_TYPE":"U","NORAD_CAT_ID":57147,"ELEMENT_SET_NO":999,"REV_AT_EPOCH":13222,"BSTAR":-0.00010107456,"MEAN_MOTION_DOT":-1.568e-5,"MEAN_MOTION_DDOT":0},{"OBJECT_NAME":"STARLINK-5788","OBJECT_ID":"2023-090AZ","EPOCH":"2025-11-06T18:10:07.597632","MEAN_MOTION":15.02539111,"ECCENTRICITY":9.727e-5,"INCLINATION":43.0007,"RA_OF_ASC_NODE":209.3846,"ARG_OF_PERICENTER":268.3155,"MEAN_ANOMALY":91.7576,"EPHEMERIS_TYPE":0,"CLASSIFICATION_TYPE":"U","NORAD_CAT_ID":57148,"ELEMENT_SET_NO":999,"REV_AT_EPOCH":13188,"BSTAR":0.00015578143,"MEAN_MOTION_DOT":1.902e-5,"MEAN_MOTION_DDOT":0},{"OBJECT_NAME":"STARLINK-5778","OBJECT_ID":"2023-090BA","EPOCH":"2025-11-08T07:21:22.927104","MEAN_MOTION":15.02538593,"ECCENTRICITY":0.0001595,"INCLINATION":43.0067,"RA_OF_ASC_NODE":175.1947,"ARG_OF_PERICENTER":264.8645,"MEAN_ANOMALY":95.2015,"EPHEMERIS_TYPE":0,"CLASSIFICATION_TYPE":"U","NORAD_CAT_ID":57149,"ELEMENT_SET_NO":999,"REV_AT_EPOCH":13260,"BSTAR":5.5676e-5,"MEAN_MOTION_DOT":5.48e-6,"MEAN_MOTION_DDOT":0},{"OBJECT_NAME":"STARLINK-5780","OBJECT_ID":"2023-090BB","EPOCH":"2025-11-07T23:14:02.819616","MEAN_MOTION":15.02524343,"ECCENTRICITY":0.00012603,"INCLINATION":43.0042,"RA_OF_ASC_NODE":202.9963,"ARG_OF_PERICENTER":264.5384,"MEAN_ANOMALY":95.5314,"EPHEMERIS_TYPE":0,"CLASSIFICATION_TYPE":"U","NORAD_CAT_ID":57150,"ELEMENT_SET_NO":999,"REV_AT_EPOCH":13225,"BSTAR":-5.9398029e-5,"MEAN_MOTION_DOT":-1.006e-5,"MEAN_MOTION_DDOT":0},{"OBJECT_NAME":"STARLINK-5776","OBJECT_ID":"2023-090BC","EPOCH":"2025-11-07T23:12:25.730208","MEAN_MOTION":15.0253041,"ECCENTRICITY":8.104e-5,"INCLINATION":43.0037,"RA_OF_ASC_NODE":202.9873,"ARG_OF_PERICENTER":257.724,"MEAN_ANOMALY":102.3512,"EPHEMERIS_TYPE":0,"CLASSIFICATION_TYPE":"U","NORAD_CAT_ID":57151,"ELEMENT_SET_NO":999,"REV_AT_EPOCH":13225,"BSTAR":-6.2713833e-5,"MEAN_MOTION_DOT":-1.05e-5,"MEAN_MOTION_DDOT":0},{"OBJECT_NAME":"STARLINK-6164","OBJECT_ID":"2023-090BD","EPOCH":"2025-11-07T23:17:13.278912","MEAN_MOTION":15.02528753,"ECCENTRICITY":0.00010217,"INCLINATION":43.0034,"RA_OF_ASC_NODE":203.0136,"ARG_OF_PERICENTER":273.1873,"MEAN_ANOMALY":86.8852,"EPHEMERIS_TYPE":0,"CLASSIFICATION_TYPE":"U","NORAD_CAT_ID":57152,"ELEMENT_SET_NO":999,"REV_AT_EPOCH":13225,"BSTAR":-2.8370723e-5,"MEAN_MOTION_DOT":-5.87e-6,"MEAN_MOTION_DDOT":0},{"OBJECT_NAME":"STARLINK-5879","OBJECT_ID":"2023-090BE","EPOCH":"2025-11-08T09:25:31.645632","MEAN_MOTION":15.02528332,"ECCENTRICITY":0.0001037,"INCLINATION":43.0037,"RA_OF_ASC_NODE":188.008,"ARG_OF_PERICENTER":275.9225,"MEAN_ANOMALY":84.1499,"EPHEMERIS_TYPE":0,"CLASSIFICATION_TYPE":"U","NORAD_CAT_ID":57153,"ELEMENT_SET_NO":999,"REV_AT_EPOCH":13196,"BSTAR":1.2921e-6,"MEAN_MOTION_DOT":-1.86e-6,"MEAN_MOTION_DDOT":0},{"OBJECT_NAME":"STARLINK-6106","OBJECT_ID":"2023-090BF","EPOCH":"2025-11-07T18:17:15.269856","MEAN_MOTION":15.02530594,"ECCENTRICITY":0.0001189,"INCLINATION":43.0025,"RA_OF_ASC_NODE":204.0266,"ARG_OF_PERICENTER":270.0454,"MEAN_ANOMALY":90.0252,"EPHEMERIS_TYPE":0,"CLASSIFICATION_TYPE":"U","NORAD_CAT_ID":57154,"ELEMENT_SET_NO":999,"REV_AT_EPOCH":13222,"BSTAR":-5.9504334e-5,"MEAN_MOTION_DOT":-1.007e-5,"MEAN_MOTION_DDOT":0},{"OBJECT_NAME":"STARLINK-6108","OBJECT_ID":"2023-090BG","EPOCH":"2025-11-08T09:53:45.064896","MEAN_MOTION":15.02540938,"ECCENTRICITY":0.0001104,"INCLINATION":43.0051,"RA_OF_ASC_NODE":200.3102,"ARG_OF_PERICENTER":261.0796,"MEAN_ANOMALY":98.9921,"EPHEMERIS_TYPE":0,"CLASSIFICATION_TYPE":"U","NORAD_CAT_ID":57155,"ELEMENT_SET_NO":999,"REV_AT_EPOCH":13232,"BSTAR":4.1205e-5,"MEAN_MOTION_DOT":3.53e-6,"MEAN_MOTION_DDOT":0},{"OBJECT_NAME":"STARLINK-6137","OBJECT_ID":"2023-090BH","EPOCH":"2025-11-07T18:01:15.985344","MEAN_MOTION":15.02537115,"ECCENTRICITY":0.00013842,"INCLINATION":43.0038,"RA_OF_ASC_NODE":203.9455,"ARG_OF_PERICENTER":266.8753,"MEAN_ANOMALY":93.1931,"EPHEMERIS_TYPE":0,"CLASSIFICATION_TYPE":"U","NORAD_CAT_ID":57156,"ELEMENT_SET_NO":999,"REV_AT_EPOCH":13222,"BSTAR":5.2079074e-5,"MEAN_MOTION_DOT":5.0e-6,"MEAN_MOTION_DDOT":0},{"OBJECT_NAME":"STARLINK-5525","OBJECT_ID":"2023-094A","EPOCH":"2025-11-07T11:48:52.992864","MEAN_MOTION":15.02532671,"ECCENTRICITY":0.00027251,"INCLINATION":43.0092,"RA_OF_ASC_NODE":334.7207,"ARG_OF_PERICENTER":272.8805,"MEAN_ANOMALY":87.1726,"EPHEMERIS_TYPE":0,"CLASSIFICATION_TYPE":"U","NORAD_CAT_ID":57218,"ELEMENT_SET_NO":999,"REV_AT_EPOCH":12873,"BSTAR":-3.390715e-6,"MEAN_MOTION_DOT":-2.5e-6,"MEAN_MOTION_DDOT":0},{"OBJECT_NAME":"STARLINK-5520","OBJECT_ID":"2023-094B","EPOCH":"2025-11-08T08:28:33.436128","MEAN_MOTION":15.02531476,"ECCENTRICITY":0.000142,"INCLINATION":43.0054,"RA_OF_ASC_NODE":329.9965,"ARG_OF_PERICENTER":255.2971,"MEAN_ANOMALY":104.7714,"EPHEMERIS_TYPE":0,"CLASSIFICATION_TYPE":"U","NORAD_CAT_ID":57219,"ELEMENT_SET_NO":999,"REV_AT_EPOCH":12886,"BSTAR":6.2194e-7,"MEAN_MOTION_DOT":-1.95e-6,"MEAN_MOTION_DDOT":0}]
